ONEWEB-0505             
1 54123U 22138L   24246.79740619 -.00000251  00000+0 -65863-3 0  9992
2 54123  87.9084  74.7353 0001041  97.7920 262.3331 13.19725012 90765
ONEWEB-0506             
1 54124U 22138M   24246.92376965 -.00000294  00000+0 -76576-3 0  9997
2 54124  87.9085  74.7071 0001526  91.7871 268.3436 13.19723519 90774
ONEWEB-0507             
1 54125U 22138N   24246.94430102 -.00000357  00000+0 -92309-3 0  9996
2 54125  87.9095  74.7307 0001573  97.8942 262.2369 13.19724032 90821
ONEWEB-0508             
1 54126U 22138P   24246.94115088  .00000051  00000+0  95674-4 0  9998
2 54126  87.9091  74.7226 0001466 104.5767 255.5528 13.19725846 90804
ONEWEB-0510             
1 54128U 22138R   24246.94128545 -.00000059  00000+0 -17805-3 0  9991
2 54128  87.9213  44.1694 0002242  97.4641 262.6748 13.20771737 93185
ONEWEB-0511             
1 54129U 22138S   24247.21598787  .00000069  00000+0  14108-3 0  9994
2 54129  87.9086  74.6530 0001569  78.1557 281.9752 13.19724690 91714
